ONEWEB-0656             
1 55817U 23029X   25310.10034786  .00000050  00000+0  92062-4 0  9999
2 55817  87.9188 318.9181 0001444  83.8326 276.2972 13.20772206131700
ONEWEB-0657             
1 55818U 23029Y   25310.09579264  .00000006  00000+0 -18147-4 0  9997
2 55818  87.9215 349.3766 0001920  73.2642 286.8702 13.19723350129486
ONEWEB-0658             
1 55819U 23029Z   25310.16686895 -.00000708  00000+0 -18003-2 0  9994
2 55819  87.9238 349.3094 0002508  96.3406 263.8012 13.19730180129504
ONEWEB-0660             
1 55820U 23029AA  25310.10153478 -.00000461  00000+0 -12785-2 0  9993
2 55820  87.9007 334.1345 0001902 104.3402 255.7939 13.14501932130094
ONEWEB-0661             
1 55821U 23029AB  25310.13644267  .00000261  00000+0  66822-3 0  9996
2 55821  87.8998 334.1964 0001848 105.4848 254.6486 13.14502651130088
ONEWEB-0662             
1 55822U 23029AC  25310.32355993 -.00000107  00000+0 -32251-3 0  9993
2 55822  87.9002 334.1644 0001990 103.8104 256.3247 13.14502374130150
ONEWEB-0663             
1 55823U 23029AD  25310.30085683  .00000028  00000+0  37757-4 0  9995
2 55823  87.9200 318.9411 0002115 101.7135 258.4235 13.20850968131720
ONEWEB-0664             
1 55824U 23029AE  25310.08772297 -.00000077  00000+0 -22008-3 0  9993
2 55824  87.9180 318.9952 0001530  98.4950 261.6357 13.20770964131699
